SPACEMOBILE-006         
1 67232U 25309A   26123.15284543  .00003455  00000+0  18152-3 0  9991
2 67232  52.9935 177.8615 0010953   0.6300 359.4705 15.18312209 19754
